{"type":"FeatureCollection","features":[{"type":"Feature","geometry":{"type":"Polygon","coordinates":[[[-2.557664992291757,6.872098738305982],[-2.556506277997323,6.868008445958959],[-2.5518714208195887,6.867901927459108],[-2.550176264722177,6.867880623756282],[-2.5505195874760833,6.870287936138152],[-2.551377894360849,6.872460897911945],[-2.557664992291757,6.872098738305982]]]},"id":"0","properties":{"loss_after_2020_ha":0.0,"loss_pct":0.0,"plot_area_ha":34.60318963931105,"plot_id":1,"risk_flag":"GREEN"}},{"type":"Feature","geometry":{"type":"Polygon","coordinates":[[[-2.571481347157929,6.867933776450584],[-2.5734125376486516,6.864823425948297],[-2.5713526011252137,6.863971271577827],[-2.567919373586151,6.864695602889987],[-2.565537571980927,6.865675578792942],[-2.5671254397177434,6.869915016510564],[-2.570129513814423,6.87104410661602],[-2.571481347157929,6.867933776450584]]]},"id":"1","properties":{"loss_after_2020_ha":0.0,"loss_pct":0.0,"plot_area_ha":40.16353266004924,"plot_id":2,"risk_flag":"GREEN"}},{"type":"Feature","geometry":{"type":"Polygon","coordinates":[[[-2.5728549814900896,6.856662323375494],[-2.5697632033663087,6.854913018613006],[-2.566671429143667,6.856061072227919],[-2.5679374317986965,6.858745397920716],[-2.571692524419546,6.860066251042327],[-2.575640736089468,6.859128871784979],[-2.5728549814900896,6.856662323375494]]]},"id":"2","properties":{"loss_after_2020_ha":0.0,"loss_pct":0.0,"plot_area_ha":31.587524813307695,"plot_id":3,"risk_flag":"GREEN"}},{"type":"Feature","geometry":{"type":"Polygon","coordinates":[[[-2.593711838789894,6.8515481281619595],[-2.591136918135597,6.850994212559605],[-2.5886049128255384,6.8591750544702315],[-2.5919952250203626,6.859814176829294],[-2.593711838789894,6.8515481281619595]]]},"id":"3","properties":{"loss_after_2020_ha":4.044325342108035,"loss_pct":12.7721303084218,"plot_area_ha":31.66523707827544,"plot_id":4,"risk_flag":"RED"}},{"type":"Feature","geometry":{"type":"Polygon","coordinates":[[[-2.6050117103063846,6.880330227502365],[-2.604024657388904,6.873854027191661],[-2.6020934668981806,6.874194882040329],[-2.6011493293249393,6.875515692269843],[-2.6020076362097044,6.880245014913653],[-2.6045825568640013,6.880415440075787],[-2.6050117103063846,6.880330227502365]]]},"id":"4","properties":{"loss_after_2020_ha":11.70109965102252,"loss_pct":51.641218656960305,"plot_area_ha":22.65844988816007,"plot_id":5,"risk_flag":"RED"}},{"type":"Feature","geometry":{"type":"Polygon","coordinates":[[[-2.5839987261708197,6.879116048321387],[-2.5822177405178053,6.8768366058926],[-2.5803723807155587,6.878881718478952],[-2.5804582114040358,6.881225065824214],[-2.582689809304426,6.881395490634554],[-2.5839987261708197,6.879116048321387]]]},"id":"5","properties":{"loss_after_2020_ha":1.7754155029296874,"loss_pct":13.369501174344157,"plot_area_ha":13.279594203085747,"plot_id":6,"risk_flag":"RED"}}]}